[{"OBJECT_NAME":"STARLINK-34277","OBJECT_ID":"2025-112L","EPOCH":"2026-03-21T02:27:35.942112","MEAN_MOTION":15.05652359,"ECCENTRICITY":0.00012925,"INCLINATION":97.6011,"RA_OF_ASC_NODE":132.7409,"ARG_OF_PERICENTER":110.8313,"MEAN_ANOMALY":249.3052,"EPHEMERIS_TYPE":0,"CLASSIFICATION_TYPE":"U","NORAD_CAT_ID":64156,"ELEMENT_SET_NO":999,"REV_AT_EPOCH":4502,"BSTAR":0.00055321125,"MEAN_MOTION_DOT":7.931e-5,"MEAN_MOTION_DDOT":0},{"OBJECT_NAME":"STARLINK-34343","OBJECT_ID":"2025-112M","EPOCH":"2026-03-21T03:39:21.820896","MEAN_MOTION":15.05661938,"ECCENTRICITY":0.00010162,"INCLINATION":97.6026,"RA_OF_ASC_NODE":132.8324,"ARG_OF_PERICENTER":97.4136,"MEAN_ANOMALY":262.7206,"EPHEMERIS_TYPE":0,"CLASSIFICATION_TYPE":"U","NORAD_CAT_ID":64157,"ELEMENT_SET_NO":999,"REV_AT_EPOCH":4503,"BSTAR":0.00045296715,"MEAN_MOTION_DOT":6.483e-5,"MEAN_MOTION_DDOT":0},{"OBJECT_NAME":"STARLINK-34166","OBJECT_ID":"2025-112N","EPOCH":"2026-03-21T02:51:30.550176","MEAN_MOTION":15.05661593,"ECCENTRICITY":0.00015864,"INCLINATION":97.6017,"RA_OF_ASC_NODE":132.7213,"ARG_OF_PERICENTER":137.5859,"MEAN_ANOMALY":222.5491,"EPHEMERIS_TYPE":0,"CLASSIFICATION_TYPE":"U","NORAD_CAT_ID":64158,"ELEMENT_SET_NO":999,"REV_AT_EPOCH":4502,"BSTAR":0.0004298941,"MEAN_MOTION_DOT":6.15e-5,"MEAN_MOTION_DDOT":0},{"OBJECT_NAME":"STARLINK-34344","OBJECT_ID":"2025-112P","EPOCH":"2026-03-21T02:39:33.025824","MEAN_MOTION":15.05652589,"ECCENTRICITY":0.00014747,"INCLINATION":97.6017,"RA_OF_ASC_NODE":132.732,"ARG_OF_PERICENTER":88.093,"MEAN_ANOMALY":272.0466,"EPHEMERIS_TYPE":0,"CLASSIFICATION_TYPE":"U","NORAD_CAT_ID":64159,"ELEMENT_SET_NO":999,"REV_AT_EPOCH":4502,"BSTAR":0.00019649794,"MEAN_MOTION_DOT":2.776e-5,"MEAN_MOTION_DDOT":0},{"OBJECT_NAME":"STARLINK-34339","OBJECT_ID":"2025-112Q","EPOCH":"2026-03-21T02:15:37.879488","MEAN_MOTION":15.0566236,"ECCENTRICITY":0.000137,"INCLINATION":97.6031,"RA_OF_ASC_NODE":132.7551,"ARG_OF_PERICENTER":69.7827,"MEAN_ANOMALY":290.3547,"EPHEMERIS_TYPE":0,"CLASSIFICATION_TYPE":"U","NORAD_CAT_ID":64160,"ELEMENT_SET_NO":999,"REV_AT_EPOCH":4502,"BSTAR":0.00058033526,"MEAN_MOTION_DOT":8.325e-5,"MEAN_MOTION_DDOT":0},{"OBJECT_NAME":"STARLINK-34341","OBJECT_ID":"2025-112R","EPOCH":"2026-03-21T03:27:24.245568","MEAN_MOTION":15.056618,"ECCENTRICITY":0.00014583,"INCLINATION":97.6024,"RA_OF_ASC_NODE":132.8441,"ARG_OF_PERICENTER":153.3225,"MEAN_ANOMALY":206.8077,"EPHEMERIS_TYPE":0,"CLASSIFICATION_TYPE":"U","NORAD_CAT_ID":64161,"ELEMENT_SET_NO":999,"REV_AT_EPOCH":4503,"BSTAR":0.0003429702,"MEAN_MOTION_DOT":4.893e-5,"MEAN_MOTION_DDOT":0},{"OBJECT_NAME":"STARLINK-34317","OBJECT_ID":"2025-112S","EPOCH":"2026-03-21T03:03:29.151936","MEAN_MOTION":15.05662007,"ECCENTRICITY":0.00011304,"INCLINATION":97.6026,"RA_OF_ASC_NODE":132.8651,"ARG_OF_PERICENTER":135.2825,"MEAN_ANOMALY":224.8493,"EPHEMERIS_TYPE":0,"CLASSIFICATION_TYPE":"U","NORAD_CAT_ID":64162,"ELEMENT_SET_NO":999,"REV_AT_EPOCH":4503,"BSTAR":0.00014287291,"MEAN_MOTION_DOT":2.002e-5,"MEAN_MOTION_DDOT":0},{"OBJECT_NAME":"STARLINK-34340","OBJECT_ID":"2025-112T","EPOCH":"2026-03-21T02:31:35.482656","MEAN_MOTION":15.05666166,"ECCENTRICITY":0.00013266,"INCLINATION":97.6014,"RA_OF_ASC_NODE":132.7377,"ARG_OF_PERICENTER":145.0391,"MEAN_ANOMALY":215.0923,"EPHEMERIS_TYPE":0,"CLASSIFICATION_TYPE":"U","NORAD_CAT_ID":64163,"ELEMENT_SET_NO":999,"REV_AT_EPOCH":4502,"BSTAR":0.0005323188,"MEAN_MOTION_DOT":7.632e-5,"MEAN_MOTION_DDOT":0},{"OBJECT_NAME":"STARLINK-34263","OBJECT_ID":"2025-112U","EPOCH":"2026-03-21T03:55:20.599968","MEAN_MOTION":15.05668368,"ECCENTRICITY":0.00014747,"INCLINATION":97.6022,"RA_OF_ASC_NODE":132.8157,"ARG_OF_PERICENTER":111.6519,"MEAN_ANOMALY":248.4865,"EPHEMERIS_TYPE":0,"CLASSIFICATION_TYPE":"U","NORAD_CAT_ID":64164,"ELEMENT_SET_NO":999,"REV_AT_EPOCH":4503,"BSTAR":0.00068488859,"MEAN_MOTION_DOT":9.84e-5,"MEAN_MOTION_DDOT":0},{"OBJECT_NAME":"STARLINK-33793","OBJECT_ID":"2025-112V","EPOCH":"2026-03-21T03:43:20.967456","MEAN_MOTION":15.05664902,"ECCENTRICITY":9.399e-5,"INCLINATION":97.6028,"RA_OF_ASC_NODE":132.8288,"ARG_OF_PERICENTER":110.0303,"MEAN_ANOMALY":250.1025,"EPHEMERIS_TYPE":0,"CLASSIFICATION_TYPE":"U","NORAD_CAT_ID":64165,"ELEMENT_SET_NO":999,"REV_AT_EPOCH":4503,"BSTAR":0.00052392218,"MEAN_MOTION_DOT":7.51e-5,"MEAN_MOTION_DDOT":0},{"OBJECT_NAME":"STARLINK-34313","OBJECT_ID":"2025-112W","EPOCH":"2026-03-21T03:31:25.304160","MEAN_MOTION":15.0563255,"ECCENTRICITY":4.846e-5,"INCLINATION":97.603,"RA_OF_ASC_NODE":132.8389,"ARG_OF_PERICENTER":113.9778,"MEAN_ANOMALY":246.1499,"EPHEMERIS_TYPE":0,"CLASSIFICATION_TYPE":"U","NORAD_CAT_ID":64166,"ELEMENT_SET_NO":999,"REV_AT_EPOCH":4503,"BSTAR":3.5520617e-5,"MEAN_MOTION_DOT":4.52e-6,"MEAN_MOTION_DDOT":0},{"OBJECT_NAME":"STARLINK-34309","OBJECT_ID":"2025-112X","EPOCH":"2026-03-21T03:19:26.644512","MEAN_MOTION":15.05667485,"ECCENTRICITY":0.00016782,"INCLINATION":97.6021,"RA_OF_ASC_NODE":132.8519,"ARG_OF_PERICENTER":75.9705,"MEAN_ANOMALY":284.1709,"EPHEMERIS_TYPE":0,"CLASSIFICATION_TYPE":"U","NORAD_CAT_ID":64167,"ELEMENT_SET_NO":999,"REV_AT_EPOCH":4503,"BSTAR":0.00050558336,"MEAN_MOTION_DOT":7.245e-5,"MEAN_MOTION_DDOT":0},{"OBJECT_NAME":"STARLINK-34303","OBJECT_ID":"2025-112Y","EPOCH":"2026-03-21T03:07:28.388352","MEAN_MOTION":15.05661437,"ECCENTRICITY":0.00012134,"INCLINATION":97.6023,"RA_OF_ASC_NODE":132.8639,"ARG_OF_PERICENTER":111.8218,"MEAN_ANOMALY":248.3138,"EPHEMERIS_TYPE":0,"CLASSIFICATION_TYPE":"U","NORAD_CAT_ID":64168,"ELEMENT_SET_NO":999,"REV_AT_EPOCH":4503,"BSTAR":0.00033699812,"MEAN_MOTION_DOT":4.807e-5,"MEAN_MOTION_DDOT":0},{"OBJECT_NAME":"STARLINK-34175","OBJECT_ID":"2025-112Z","EPOCH":"2026-03-20T21:56:26.161152","MEAN_MOTION":15.05658566,"ECCENTRICITY":0.00010028,"INCLINATION":97.6011,"RA_OF_ASC_NODE":132.5319,"ARG_OF_PERICENTER":117.2493,"MEAN_ANOMALY":242.8836,"EPHEMERIS_TYPE":0,"CLASSIFICATION_TYPE":"U","NORAD_CAT_ID":64169,"ELEMENT_SET_NO":999,"REV_AT_EPOCH":4499,"BSTAR":0.0003918605,"MEAN_MOTION_DOT":5.599e-5,"MEAN_MOTION_DDOT":0},{"OBJECT_NAME":"STARLINK-34177","OBJECT_ID":"2025-113A","EPOCH":"2026-03-21T03:57:48.782880","MEAN_MOTION":15.30213891,"ECCENTRICITY":0.00012414,"INCLINATION":53.1607,"RA_OF_ASC_NODE":37.7204,"ARG_OF_PERICENTER":86.6117,"MEAN_ANOMALY":273.5026,"EPHEMERIS_TYPE":0,"CLASSIFICATION_TYPE":"U","NORAD_CAT_ID":64170,"ELEMENT_SET_NO":999,"REV_AT_EPOCH":4682,"BSTAR":0.00094123706,"MEAN_MOTION_DOT":0.00027633,"MEAN_MOTION_DDOT":0},{"OBJECT_NAME":"STARLINK-34228","OBJECT_ID":"2025-113B","EPOCH":"2026-03-21T03:30:27.355680","MEAN_MOTION":15.30227167,"ECCENTRICITY":0.00013484,"INCLINATION":53.1616,"RA_OF_ASC_NODE":37.5963,"ARG_OF_PERICENTER":110.3838,"MEAN_ANOMALY":249.7308,"EPHEMERIS_TYPE":0,"CLASSIFICATION_TYPE":"U","NORAD_CAT_ID":64171,"ELEMENT_SET_NO":999,"REV_AT_EPOCH":4682,"BSTAR":0.00083549108,"MEAN_MOTION_DOT":0.00024488,"MEAN_MOTION_DDOT":0}]
