STARLINK-34277          
1 64156U 25112L   26080.10249933  .00007931  00000+0  55321-3 0  9998
2 64156  97.6011 132.7409 0001292 110.8313 249.3052 15.05652359 45022
STARLINK-34343          
1 64157U 25112M   26080.15233589  .00006483  00000+0  45297-3 0  9996
2 64157  97.6026 132.8324 0001016  97.4136 262.7206 15.05661938 45037
STARLINK-34166          
1 64158U 25112N   26080.11910359  .00006150  00000+0  42989-3 0  9996
2 64158  97.6017 132.7213 0001586 137.5859 222.5491 15.05661593 45020
STARLINK-34344          
1 64159U 25112P   26080.11079891  .00002776  00000+0  19650-3 0  9993
2 64159  97.6017 132.7320 0001474  88.0930 272.0466 15.05652589 45023
STARLINK-34339          
1 64160U 25112Q   26080.09418842  .00008325  00000+0  58034-3 0  9990
2 64160  97.6031 132.7551 0001370  69.7827 290.3547 15.05662360 45024
STARLINK-34341          
1 64161U 25112R   26080.14403062  .00004893  00000+0  34297-3 0  9996
2 64161  97.6024 132.8441 0001458 153.3225 206.8077 15.05661800 45034
STARLINK-34317          
1 64162U 25112S   26080.12742074  .00002002  00000+0  14287-3 0  9991
2 64162  97.6026 132.8651 0001130 135.2825 224.8493 15.05662007 45034
STARLINK-34340          
1 64163U 25112T   26080.10527179  .00007632  00000+0  53232-3 0  9994
2 64163  97.6014 132.7377 0001326 145.0391 215.0923 15.05666166 45029
STARLINK-34263          
1 64164U 25112U   26080.16343287  .00009840  00000+0  68489-3 0  9990
2 64164  97.6022 132.8157 0001474 111.6519 248.4865 15.05668368 45033
STARLINK-33793          
1 64165U 25112V   26080.15510379  .00007510  00000+0  52392-3 0  9996
2 64165  97.6028 132.8288 0000939 110.0303 250.1025 15.05664902 45032
STARLINK-34313          
1 64166U 25112W   26080.14682065  .00000452  00000+0  35521-4 0  9992
2 64166  97.6030 132.8389 0000484 113.9778 246.1499 15.05632550 45035
STARLINK-34309          
1 64167U 25112X   26080.13850283  .00007245  00000+0  50558-3 0  9994
2 64167  97.6021 132.8519 0001678  75.9705 284.1709 15.05667485 45035
STARLINK-34303          
1 64168U 25112Y   26080.13018968  .00004807  00000+0  33700-3 0  9992
2 64168  97.6023 132.8639 0001213 111.8218 248.3138 15.05661437 45034
STARLINK-34175          
1 64169U 25112Z   26079.91419168  .00005599  00000+0  39186-3 0  9997
2 64169  97.6011 132.5319 0001002 117.2493 242.8836 15.05658566 44992
STARLINK-34177          
1 64170U 25113A   26080.16514795  .00027633  00000+0  94124-3 0  9997
2 64170  53.1607  37.7204 0001241  86.6117 273.5026 15.30213891 46820
STARLINK-34228          
1 64171U 25113B   26080.14614995  .00024488  00000+0  83549-3 0  9993
2 64171  53.1616  37.5963 0001348 110.3838 249.7308 15.30227167 46823
